STARLINK-32865          
1 62952U 25029E   26068.72441104  .00025974  00000+0  88601-3 0  9999
2 62952  53.1590 232.2423 0000855  75.4420 284.6676 15.30200671 61334
2025-313BC              
1 67298U 25313BC  26068.18968176  .00075331  00000+0  26410-2 0  9997
2 67298  97.3985 144.8110 0008478 328.9209  31.1528 15.29126358  7890
